NORAD_CAT_ID,OBJECT_NAME,OBJECT_TYPE,EPOCH,MEAN_MOTION,ECCENTRICITY,INCLINATION,RA_OF_ASC_NODE,ARG_OF_PERICENTER,MEAN_ANOMALY,BSTAR,MEAN_MOTION_DOT,MEAN_MOTION_DDOT,TLE_LINE0,TLE_LINE1,TLE_LINE2,SEMIMAJOR_AXIS,PERIOD,APOGEE,PERIGEE,DECAYED
50820.0,STARLINK-3339,PAYLOAD,2022-11-22 19:56:26,15.08846467,0.0002673,53.2142,168.9735,38.9682,321.1502,0.00021971,3.211e-05,0.0,0 STARLINK-3339,1 50820U 22001T   22326.83085806  .00003211  00000-0  21971-3 0  9993,2 50820  53.2142 168.9735 0002673  38.9682 321.1502 15.08846467 48811,6917.861,95.437,541.575,537.876,0.0
50820.0,STARLINK-3339,PAYLOAD,2022-11-23 13:25:41,15.08837672,0.0002612,53.2137,165.701,41.2183,318.9006,4.1427e-05,3.71e-06,0.0,0 STARLINK-3339,1 50820U 22001T   22327.55950413  .00000371  00000-0  41427-4 0  9991,2 50820  53.2137 165.7010 0002612  41.2183 318.9006 15.08837672 50209,6917.888000000001,95.438,541.559,537.946,0.0
50820.0,STARLINK-3339,PAYLOAD,2022-11-23 19:47:13,15.08839139,0.0002746,53.2137,164.5129,40.2246,319.8949,4.0149e-05,3.5000000000000016e-06,0.0,0 STARLINK-3339,1 50820U 22001T   22327.82446367  .00000350  00000-0  40149-4 0  9996,2 50820  53.2137 164.5129 0002746  40.2246 319.8949 15.08839139 48960,6917.8830000000025,95.438,541.648,537.8480000000002,0.0
50820.0,STARLINK-3339,PAYLOAD,2022-11-24 11:41:04,15.08841421,0.0002835,53.2134,161.5397,37.9159,322.2033,5.5961e-05,6.02e-06,0.0,0 STARLINK-3339,1 50820U 22001T   22328.48686331  .00000602  00000-0  55961-4 0  9994,2 50820  53.2134 161.5397 0002835  37.9159 322.2033 15.08841421 49067,6917.876,95.437,541.702,537.78,0.0
50820.0,STARLINK-3339,PAYLOAD,2022-11-24 18:02:36,15.08866812,0.0003333,53.2149,160.3496,47.5208,312.6065,-0.00033376,-5.601e-05,0.0,0 STARLINK-3339,1 50820U 22001T   22328.75181270 -.00005601  00000-0 -33376-3 0  9997,2 50820  53.2149 160.3496 0003333  47.5208 312.6065 15.08866812 50382,6917.7980000000025,95.436,541.969,537.3580000000002,0.0
50820.0,STARLINK-3339,PAYLOAD,2022-11-24 22:48:46,15.08857675,0.0002772,53.2149,159.4574,43.4545,316.6666,-0.00015189,-2.706e-05,0.0,0 STARLINK-3339,1 50820U 22001T   22328.95053497 -.00002706  00000-0 -15189-3 0  9993,2 50820  53.2149 159.4574 0002772  43.4545 316.6666 15.08857675 50415,6917.826,95.436,541.609,537.774,0.0
50820.0,STARLINK-3339,PAYLOAD,2022-11-25 13:07:14,15.08843848,0.0002828,53.215,156.781,41.9936,318.1272,0.00015575,2.191e-05,0.0,0 STARLINK-3339,1 50820U 22001T   22329.54670091  .00002191  00000-0  15575-3 0  9999,2 50820  53.2150 156.7810 0002828  41.9936 318.1272 15.08843848 49223,6917.869000000002,95.437,541.69,537.7769999999998,0.0
50820.0,STARLINK-3339,PAYLOAD,2022-11-25 19:28:47,15.08847255,0.0002869,53.2139,155.5913,42.8377,317.2839,0.00019081,2.75e-05,0.0,0 STARLINK-3339,1 50820U 22001T   22329.81165990  .00002750  00000-0  19081-3 0  9993,2 50820  53.2139 155.5913 0002869  42.8377 317.2839 15.08847255 50547,6917.858,95.437,541.7080000000002,537.738,0.0
50820.0,STARLINK-3339,PAYLOAD,2022-11-25 21:04:10,15.08848017,0.000288,53.2139,155.2939,43.1546,316.9672,0.00019594,2.832e-05,0.0,0 STARLINK-3339,1 50820U 22001T   22329.87789935  .00002832  00000-0  19594-3 0  9990,2 50820  53.2139 155.2939 0002880  43.1546 316.9672 15.08848017 49273,6917.856,95.437,541.7130000000002,537.729,0.0
50820.0,STARLINK-3339,PAYLOAD,2022-11-26 12:58:01,15.08847124,0.0002639,53.2143,152.3191,45.1537,314.967,9.7347e-05,1.261e-05,0.0,0 STARLINK-3339,1 50820U 22001T   22330.54029619  .00001261  00000-0  97347-4 0  9990,2 50820  53.2143 152.3191 0002639  45.1537 314.9670 15.08847124 49375,6917.859,95.437,541.549,537.898,0.0
50820.0,STARLINK-3339,PAYLOAD,2022-11-26 19:19:34,15.08845673,0.0002718,53.2141,151.1301,42.9488,317.1716,3.0444e-05,1.96e-06,0.0,0 STARLINK-3339,1 50820U 22001T   22330.80525670  .00000196  00000-0  30444-4 0  9998,2 50820  53.2141 151.1301 0002718  42.9488 317.1716 15.08845673 49419,6917.863,95.437,541.6080000000002,537.8480000000002,0.0
50820.0,STARLINK-3339,PAYLOAD,2022-11-26 22:30:20,15.088376,0.0002776,53.2142,150.5358,42.529,317.5916,-4.2849e-05,-9.7e-06,0.0,0 STARLINK-3339,1 50820U 22001T   22330.93774096 -.00000970  00000-0 -42849-4 0  9994,2 50820  53.2142 150.5358 0002776  42.5290 317.5916 15.08837600 50718,6917.888000000001,95.438,541.673,537.832,0.0
50820.0,STARLINK-3339,PAYLOAD,2022-11-27 12:48:49,15.08836832,0.0002846,53.2144,147.8595,44.7047,315.4174,-6.1912e-05,-1.274e-05,0.0,0 STARLINK-3339,1 50820U 22001T   22331.53390122 -.00001274  00000-0 -61912-4 0  9995,2 50820  53.2144 147.8595 0002846  44.7047 315.4174 15.08836832 49520,6917.89,95.438,541.724,537.786,0.0
50820.0,STARLINK-3339,PAYLOAD,2022-11-27 20:45:44,15.08840068,0.0002887,53.2142,146.3725,45.9809,314.1421,6.888600000000001e-07,-2.78e-06,0.0,0 STARLINK-3339,1 50820U 22001T   22331.86510080 -.00000278  00000-0  68886-6 0  9999,2 50820  53.2142 146.3725 0002887  45.9809 314.1421 15.08840068 49573,6917.88,95.438,541.742,537.748,0.0
50820.0,STARLINK-3339,PAYLOAD,2022-11-28 04:42:40,15.08840739,0.0002931,53.2145,144.8857,46.4372,313.6863,3.1821e-05,2.18e-06,0.0,0 STARLINK-3339,1 50820U 22001T   22332.19630096  .00000218  00000-0  31821-4 0  9996,2 50820  53.2145 144.8857 0002931  46.4372 313.6863 15.08840739 50904,6917.878000000002,95.438,541.771,537.716,0.0
50820.0,STARLINK-3339,PAYLOAD,2022-11-28 12:39:36,15.08837751,0.0002882,53.2145,143.3985,47.2444,312.8791,0.00017488,2.496e-05,0.0,0 STARLINK-3339,1 50820U 22001T   22332.52750287  .00002496  00000-0  17488-3 0  9990,2 50820  53.2145 143.3985 0002882  47.2444 312.8791 15.08837751 49677,6917.887,95.438,541.746,537.759,0.0
50820.0,STARLINK-3339,PAYLOAD,2022-11-29 10:54:59,15.08846179,0.0002954,53.2146,139.2352,47.881,312.2433,0.00020344,2.951e-05,0.0,0 STARLINK-3339,1 50820U 22001T   22333.45485945  .00002951  00000-0  20344-3 0  9990,2 50820  53.2146 139.2352 0002954  47.8810 312.2433 15.08846179 51093,6917.861999999999,95.437,541.77,537.683,0.0
50820.0,STARLINK-3339,PAYLOAD,2022-11-29 20:27:18,15.08850658,0.0002972,53.2144,137.4508,48.2111,311.9134,0.00023427,3.443e-05,0.0,0 STARLINK-3339,1 50820U 22001T   22333.85229672  .00003443  00000-0  23427-3 0  9999,2 50820  53.2144 137.4508 0002972  48.2111 311.9134 15.08850658 49877,6917.848000000001,95.437,541.769,537.6569999999998,0.0
50820.0,STARLINK-3339,PAYLOAD,2022-11-30 04:24:14,15.08836595,0.0002984,53.215,135.9628,49.2933,310.8318,2.4477e-05,1.01e-06,0.0,0 STARLINK-3339,1 50820U 22001T   22334.18350372  .00000101  00000-0  24477-4 0  9993,2 50820  53.2150 135.9628 0002984  49.2933 310.8318 15.08836595 51202,6917.891,95.438,541.82,537.691,0.0
50820.0,STARLINK-3339,PAYLOAD,2022-11-30 12:21:10,15.08839867,0.0002973,53.2145,134.4773,49.5457,310.5794,6.2345e-05,7.04e-06,0.0,0 STARLINK-3339,1 50820U 22001T   22334.51470297  .00000704  00000-0  62345-4 0  9994,2 50820  53.2145 134.4773 0002973  49.5457 310.5794 15.08839867 49974,6917.880999999999,95.438,541.802,537.689,0.0
50820.0,STARLINK-3339,PAYLOAD,2022-11-30 18:42:42,15.08839262,0.0002882,53.214,133.2877,49.9022,310.2223,5.8971e-05,6.5e-06,0.0,0 STARLINK-3339,1 50820U 22001T   22334.77966254  .00000650  00000-0  58971-4 0  9995,2 50820  53.2140 133.2877 0002882  49.9022 310.2223 15.08839262 50012,6917.8830000000025,95.438,541.741,537.754,0.0
50820.0,STARLINK-3339,PAYLOAD,2022-12-01 10:36:34,15.08844719,0.0002951,53.2143,130.314,50.7601,309.3652,0.00019499,2.817e-05,0.0,0 STARLINK-3339,1 50820U 22001T   22335.44206159  .00002817  00000-0  19499-3 0  9999,2 50820  53.2143 130.3140 0002951  50.7601 309.3652 15.08844719 50115,6917.866,95.437,541.7719999999998,537.69,0.0
50820.0,STARLINK-3339,PAYLOAD,2022-12-01 20:08:52,15.08850258,0.0003012,53.2143,128.5299,51.3208,308.8053,0.00040808,6.214e-05,0.0,0 STARLINK-3339,1 50820U 22001T   22335.83950019  .00006214  00000-0  40808-3 0  9996,2 50820  53.2143 128.5299 0003012  51.3208 308.8053 15.08850258 51450,6917.849,95.437,541.798,537.63,0.0
50820.0,STARLINK-3339,PAYLOAD,2022-12-02 12:02:44,15.08837946,0.0003007,53.2143,125.5558,52.1943,307.9321,7.3037e-05,8.74e-06,0.0,0 STARLINK-3339,1 50820U 22001T   22336.50190414  .00000874  00000-0  73037-4 0  9993,2 50820  53.2143 125.5558 0003007  52.1943 307.9321 15.08837946 51552,6917.887,95.438,541.832,537.6709999999998,0.0
50820.0,STARLINK-3339,PAYLOAD,2022-12-02 19:59:40,15.08840744,0.0003001,53.2146,124.0692,52.1879,307.9384,0.00010814,1.433e-05,0.0,0 STARLINK-3339,1 50820U 22001T   22336.83310298  .00001433  00000-0  10814-3 0  9998,2 50820  53.2146 124.0692 0003001  52.1879 307.9384 15.08840744 50323,6917.878000000002,95.438,541.819,537.6669999999998,0.0
50820.0,STARLINK-3339,PAYLOAD,2022-12-03 13:28:54,15.08836386,0.0002989,53.2148,120.7983,52.6205,307.5059,-2.5254e-05,-6.91e-06,0.0,0 STARLINK-3339,1 50820U 22001T   22337.56174508 -.00000691  00000-0 -25254-4 0  9993,2 50820  53.2148 120.7983 0002989  52.6205 307.5059 15.08836386 51719,6917.891,95.438,541.8240000000002,537.689,0.0
50820.0,STARLINK-3339,PAYLOAD,2022-12-03 19:50:27,15.08836428,0.0002988,53.2147,119.6089,51.2721,308.8538,-3.3022e-05,-8.14e-06,0.0,0 STARLINK-3339,1 50820U 22001T   22337.82670561 -.00000814  00000-0 -33022-4 0  9991,2 50820  53.2147 119.6089 0002988  51.2721 308.8538 15.08836428 50474,6917.891,95.438,541.823,537.689,0.0
50820.0,STARLINK-3339,PAYLOAD,2022-12-04 10:08:55,15.08840129,0.000292,53.2157,116.9326,51.2891,308.8362,0.00015016,2.102e-05,0.0,0 STARLINK-3339,1 50820U 22001T   22338.42286389  .00002102  00000-0  15016-3 0  9991,2 50820  53.2157 116.9326 0002920  51.2891 308.8362 15.08840129 50561,6917.88,95.438,541.765,537.725,0.0
50820.0,STARLINK-3339,PAYLOAD,2022-12-04 18:05:51,15.08842937,0.0002896,53.2159,115.4458,51.5491,308.5761,0.00011789,1.588e-05,0.0,0 STARLINK-3339,1 50820U 22001T   22338.75406281  .00001588  00000-0  11789-3 0  9992,2 50820  53.2159 115.4458 0002896  51.5491 308.5761 15.08842937 51890,6917.871,95.437,541.74,537.7330000000002,0.0
